*******************************************************************************
JPL/HORIZONS                 202421 (2005 UQ513)           2013-Dec-01 19:30:45
Rec #:202421 (+COV)   Soln.date: 2013-Nov-22_22:59:22    # obs: 192 (1990-2013)
 
FK5/J2000.0 helio. ecliptic osc. elements (au, days, deg., period=Julian yrs): 
 
  EPOCH=  2454444.5 ! 2007-Dec-10.00 (CT)          Residual RMS= .31817        
   EC= .146791497651637    QR= 36.92668409082567   TP= 2496943.2979945079      
   OM= 307.6423075369692   W=  222.5191056619811   IN= 25.69829481150597       
   A= 43.27978915961223    MA= 212.8863346052709   ADIST= 49.63289422839879    
   PER= 284.73176          N= .003461596           ANGMOM= .111942198          
   DAN= 47.48472           DDN= 38.21285           L= 167.2075283              
   B= -17.041503           MOID= 35.97729874       TP= 2124-Apr-18.7979945079  
 
Asteroid physical parameters (km, seconds, rotational period in hours):        
   GM= n.a.                RAD= n.a.               ROTPER= 7.03                
   H= 3.4                  G= .150                 B-V= n.a.                   
                           ALBEDO= n.a.            STYP= n.a.                  
 
ASTEROID comments: 
1: soln ref.= JPL#5, OCC=2
2: source=ORB
*******************************************************************************
 

 

*******************************************************************************
Ephemeris / WWW_USER Sun Dec  1 19:30:45 2013 Pasadena, USA      / Horizons    
*******************************************************************************
Target body name: 202421 (2005 UQ513)             {source: JPL#5}
Center body name: Earth (399)                     {source: DE-0431LE-0431}
Center-site name: San Pedro Martir
*******************************************************************************
Start time      : A.D. 2013-Jan-01 00:00:00.0000 UT      
Stop  time      : A.D. 2014-Dec-31 00:00:00.0000 UT      
Step-size       : 1440 minutes
*******************************************************************************
Target pole/equ : No model available
Target radii    : (unavailable)                                                
Center geodetic : 244.536700,31.0434585,2.8281109 {E-lon(deg),Lat(deg),Alt(km)}
Center cylindric: 244.536700,5471.93108,3271.4810 {E-lon(deg),Dxy(km),Dz(km)}
Center pole/equ : High-precision EOP model        {East-longitude +}
Center radii    : 6378.1 x 6378.1 x 6356.8 km     {Equator, meridian, pole}    
Target primary  : Sun
Vis. interferer : MOON (R_eq= 1737.400) km        {source: DE-0431LE-0431}
Rel. light bend : Sun, EARTH                      {source: DE-0431LE-0431}
Rel. lght bnd GM: 1.3271E+11, 3.9860E+05 km^3/s^2                              
Small-body perts: Yes                             {source: SB431-BIG16}
Atmos refraction: NO (AIRLESS)
RA format       : DEG
Time format     : BOTH
EOP file        : eop.131128.p140219                                           
EOP coverage    : DATA-BASED 1962-JAN-20 TO 2013-NOV-28. PREDICTS-> 2014-FEB-18
Units conversion: 1 au= 149597870.700 km, c= 299792.458 km/s, 1 day= 86400.0 s 
Table cut-offs 1: Elevation (-90.0deg=NO ),Airmass (>38.000=NO), Daylight (NO )
Table cut-offs 2: Solar Elongation (  0.0,180.0=NO ),Local Hour Angle( 0.0=NO )
*******************************************************************************
Initial FK5/J2000.0 heliocentric ecliptic osculating elements (au, days, deg.):
  EPOCH=  2454444.5 ! 2007-Dec-10.00 (CT)          Residual RMS= .31817        
   EC= .146791497651637    QR= 36.92668409082567   TP= 2496943.2979945079      
   OM= 307.6423075369692   W=  222.5191056619811   IN= 25.69829481150597       
Asteroid physical parameters (km, seconds, rotational period in hours):        
   GM= n.a.                RAD= n.a.               ROTPER= 7.03                
   H= 3.4                  G= .150                 B-V= n.a.                   
                           ALBEDO= n.a.            STYP= n.a.                  
************************************************************************************************************
 Date__(UT)__HR:MN Date_________JDUT     R.A._(J2000.0)_DEC. dRA*cosD d(DEC)/dt            delta      deldot
************************************************************************************************************
$$SOE
 2013-Apr-13 00:00 2456395.500000000 *m    7.13923  29.35374 2.985285  1.554638 49.3987234284757  -1.5857923
 2013-Apr-14 00:00 2456396.500000000 *m    7.16208  29.36429 2.973448  1.570955 49.3974805863861  -2.0373685
 2013-Apr-15 00:00 2456397.500000000 *m    7.18483  29.37495 2.960873  1.586870 49.3959766925782  -2.4877164
 2013-Apr-16 00:00 2456398.500000000 *m    7.20748  29.38571 2.947572  1.602381 49.3942125607913  -2.9366709
 2013-Apr-17 00:00 2456399.500000000 *m    7.23002  29.39658 2.933559  1.617488 49.3921890964681  -3.3840794
 2013-Apr-18 00:00 2456400.500000000 *m    7.25245  29.40754 2.918847  1.632189 49.3899072901843  -3.8297998
 2013-Apr-19 00:00 2456401.500000000 *m    7.27476  29.41861 2.903449  1.646485 49.3873682122640  -4.2736985
 2013-Apr-20 00:00 2456402.500000000 *m    7.29695  29.42977 2.887380  1.660377 49.3845730074068  -4.7156523
 2013-Apr-21 00:00 2456403.500000000 *m    7.31901  29.44101 2.870655  1.673865 49.3815228877651  -5.1555521
 2013-Apr-22 00:00 2456404.500000000 *m    7.34093  29.45235 2.853291  1.686952 49.3782191227082  -5.5933106
 2013-Apr-23 00:00 2456405.500000000 *m    7.36272  29.46378 2.835305  1.699643 49.3746630236839  -6.0288712
 2013-Apr-24 00:00 2456406.500000000 *     7.38436  29.47528 2.816711  1.711943 49.3708559234750  -6.4622182
 2013-Apr-25 00:00 2456407.500000000 *     7.40586  29.48687 2.797523  1.723859 49.3667991510616  -6.8933808
 2013-Apr-26 00:00 2456408.500000000 *     7.42721  29.49854 2.777749  1.735397 49.3624940060951  -7.3224295
 2013-Apr-27 00:00 2456409.500000000 *     7.44840  29.51028 2.757392  1.746563 49.3579417396154  -7.7494584
 2013-Apr-28 00:00 2456410.500000000 *     7.46943  29.52210 2.736446  1.757359 49.3531435481957  -8.1745566
 2013-Apr-29 00:00 2456411.500000000 *     7.49029  29.53398 2.714899  1.767784 49.3481005857574  -8.5977777
 2013-Apr-30 00:00 2456412.500000000 *     7.51098  29.54594 2.692736  1.777833 49.3428139916047  -9.0191158
 2013-May-01 00:00 2456413.500000000 *     7.53150  29.55796 2.669943  1.787497 49.3372849278847  -9.4384973
 2013-May-02 00:00 2456414.500000000 *     7.55184  29.57004 2.646505  1.796766 49.3315146177045  -9.8557864
 2013-May-03 00:00 2456415.500000000 *     7.57199  29.58218 2.622414  1.805629 49.3255043770422 -10.2707997
 2013-May-04 00:00 2456416.500000000 *     7.59196  29.59438 2.597665  1.814075 49.3192556373601 -10.6833230
 2013-May-05 00:00 2456417.500000000 *     7.61173  29.60664 2.572255  1.822096 49.3127699591117 -11.0931256
 2013-May-06 00:00 2456418.500000000 *     7.63129  29.61894 2.546189  1.829681 49.3060490379842 -11.4999708
 2013-May-07 00:00 2456419.500000000 *     7.65066  29.63130 2.519471  1.836824 49.2990947059302 -11.9036240
 2013-May-08 00:00 2456420.500000000 *m    7.66981  29.64370 2.492112  1.843519 49.2919089285282 -12.3038573
 2013-May-09 00:00 2456421.500000000 *m    7.68875  29.65614 2.464122  1.849762 49.2844937996102 -12.7004543
 2013-May-10 00:00 2456422.500000000 *m    7.70747  29.66863 2.435514  1.855549 49.2768515337449 -13.0932132
 2013-May-11 00:00 2456423.500000000 *m    7.72596  29.68115 2.406303  1.860879 49.2689844570966 -13.4819490
 2013-May-12 00:00 2456424.500000000 *m    7.74423  29.69370 2.376505  1.865751 49.2608949973012 -13.8664946
 2013-May-13 00:00 2456425.500000000 *m    7.76226  29.70629 2.346135  1.870165 49.2525856731035 -14.2467005
 2013-May-14 00:00 2456426.500000000 *m    7.78005  29.71890 2.315211  1.874122 49.2440590844834 -14.6224337
 2013-May-15 00:00 2456427.500000000 *m    7.79760  29.73153 2.283749  1.877624 49.2353179037907 -14.9935754
 2013-May-16 00:00 2456428.500000000 *m    7.81491  29.74419 2.251766  1.880671 49.2263648680441 -15.3600191
 2013-May-17 00:00 2456429.500000000 *m    7.83196  29.75686 2.219279  1.883269 49.2172027720978 -15.7216699
 2013-May-18 00:00 2456430.500000000 *m    7.84876  29.76955 2.186306  1.885418 49.2078344619105 -16.0784450
 2013-May-19 00:00 2456431.500000000 *m    7.86530  29.78226 2.152864  1.887124 49.1982628267135 -16.4302769
 2013-May-20 00:00 2456432.500000000 *m    7.88158  29.79497 2.118973  1.888391 49.1884907885670 -16.7771194
 2013-May-21 00:00 2456433.500000000 *m    7.89760  29.80768 2.084650  1.889227 49.1785212877738 -17.1189559
 2013-May-22 00:00 2456434.500000000 *m    7.91335  29.82040 2.049914  1.889638 49.1683572632144 -17.4558080
 2013-May-23 00:00 2456435.500000000 *     7.92882  29.83312 2.014780  1.889634 49.1580016282657 -17.7877413
 2013-May-24 00:00 2456436.500000000 *     7.94403  29.84584 1.979258  1.889224 49.1474572457376 -18.1148624
 2013-May-25 00:00 2456437.500000000 *     7.95895  29.85856 1.943351  1.888413 49.1367269084929 -18.4373015
 2013-May-26 00:00 2456438.500000000 *     7.97360  29.87126 1.907053  1.887208 49.1258133341271 -18.7551814
 2013-May-27 00:00 2456439.500000000 *     7.98796  29.88396 1.870354  1.885606 49.1147191798270 -19.0685810
 2013-May-28 00:00 2456440.500000000 *     8.00204  29.89664 1.833238  1.883603 49.1034470768668 -19.3775063
 2013-May-29 00:00 2456441.500000000 *     8.01582  29.90930 1.795691  1.881190 49.0919996764527 -19.6818808
 2013-May-30 00:00 2456442.500000000 *     8.02931  29.92195 1.757703  1.878358 49.0803796948117 -19.9815573
 2013-May-31 00:00 2456443.500000000 *     8.04251  29.93458 1.719269  1.875096 49.0685899476971 -20.2763410
 2013-Jun-01 00:00 2456444.500000000 *     8.05541  29.94718 1.680389  1.871396 49.0566333703994 -20.5660148
 2013-Jun-02 00:00 2456445.500000000 *     8.06800  29.95975 1.641069  1.867249 49.0445130247578 -20.8503583
